[{"OBJECT_NAME":"SITRO-AIS 5 (KATYS)","OBJECT_ID":"2023-091L","EPOCH":"2026-03-09T22:36:44.932608","MEAN_MOTION":15.27079182,"ECCENTRICITY":0.00133776,"INCLINATION":97.5176,"RA_OF_ASC_NODE":132.0172,"ARG_OF_PERICENTER":94.5677,"MEAN_ANOMALY":265.709,"EPHEMERIS_TYPE":0,"CLASSIFICATION_TYPE":"U","NORAD_CAT_ID":57176,"ELEMENT_SET_NO":999,"REV_AT_EPOCH":14918,"BSTAR":0.00057530772,"MEAN_MOTION_DOT":0.00015262,"MEAN_MOTION_DDOT":0},{"OBJECT_NAME":"STARLINK-31578","OBJECT_ID":"2024-057B","EPOCH":"2026-03-08T15:21:37.066176","MEAN_MOTION":15.27576516,"ECCENTRICITY":9.437e-5,"INCLINATION":42.9986,"RA_OF_ASC_NODE":192.5598,"ARG_OF_PERICENTER":263.492,"MEAN_ANOMALY":96.5824,"EPHEMERIS_TYPE":0,"CLASSIFICATION_TYPE":"U","NORAD_CAT_ID":59321,"ELEMENT_SET_NO":999,"REV_AT_EPOCH":10968,"BSTAR":2.3922819e-5,"MEAN_MOTION_DOT":3.96e-6,"MEAN_MOTION_DDOT":0}]
